{
    "links": {
        "self": "http://www.neowsapp.com/rest/v1/neo/54054682?api_key=iIulBulltgU6a56xZRHN4H3l9WmuAYTsLGpBGhQ2"
    },
    "id": "54054682",
    "neo_reference_id": "54054682",
    "name": "(2020 SP5)",
    "designation": "2020 SP5",
    "nasa_jpl_url": "http://ssd.jpl.nasa.gov/sbdb.cgi?sstr=54054682",
    "absolute_magnitude_h": 23.96,
    "estimated_diameter": {
        "kilometers": {
            "estimated_diameter_min": 0.0429096504,
            "estimated_diameter_max": 0.0959488953
        },
        "meters": {
            "estimated_diameter_min": 42.9096504404,
            "estimated_diameter_max": 95.9488952756
        },
        "miles": {
            "estimated_diameter_min": 0.0266628124,
            "estimated_diameter_max": 0.059619861
        },
        "feet": {
            "estimated_diameter_min": 140.779697551,
            "estimated_diameter_max": 314.792973576
        }
    },
    "is_potentially_hazardous_asteroid": false,
    "close_approach_data": [
        {
            "close_approach_date": "2020-09-17",
            "close_approach_date_full": "2020-Sep-17 16:12",
            "epoch_date_close_approach": 1600359120000,
            "relative_velocity": {
                "kilometers_per_second": "13.0420074232",
                "kilometers_per_hour": "46951.2267235776",
                "miles_per_hour": "29173.6664049919"
            },
            "miss_distance": {
                "astronomical": "0.0464697632",
                "lunar": "18.0767378848",
                "kilometers": "6951777.594124384",
                "miles": "4319634.2928851392"
            },
            "orbiting_body": "Earth"
        },
        {
            "close_approach_date": "2020-11-11",
            "close_approach_date_full": "2020-Nov-11 09:53",
            "epoch_date_close_approach": 1605088380000,
            "relative_velocity": {
                "kilometers_per_second": "11.8759112241",
                "kilometers_per_hour": "42753.2804066495",
                "miles_per_hour": "26565.2258171206"
            },
            "miss_distance": {
                "astronomical": "0.0753723098",
                "lunar": "29.3198285122",
                "kilometers": "11275537.003060126",
                "miles": "7006293.8075406988"
            },
            "orbiting_body": "Mars"
        }
    ],
    "orbital_data": {
        "orbit_id": "4",
        "orbit_determination_date": "2020-10-17 08:34:51",
        "first_observation_date": "2020-09-25",
        "last_observation_date": "2020-10-17",
        "data_arc_in_days": 22,
        "observations_used": 32,
        "orbit_uncertainty": "8",
        "minimum_orbit_intersection": ".0119288",
        "jupiter_tisserand_invariant": "3.778",
        "epoch_osculation": "2459119.5",
        "eccentricity": ".5662996125722003",
        "semi_major_axis": "1.863294943610049",
        "inclination": "2.623153402091652",
        "ascending_node_longitude": "164.5133847433639",
        "orbital_period": "929.0109544481232",
        "perihelion_distance": ".8081117389359387",
        "perihelion_argument": "132.6192736325378",
        "aphelion_distance": "2.91847814828416",
        "perihelion_time": "2459069.319697372020",
        "mean_anomaly": "19.4453131683514",
        "mean_motion": ".3875088859569553",
        "equinox": "J2000",
        "orbit_class": {
            "orbit_class_type": "APO",
            "orbit_class_description": "Near-Earth asteroid orbits which cross the Earth’s orbit similar to that of 1862 Apollo",
            "orbit_class_range": "a (semi-major axis) > 1.0 AU; q (perihelion) < 1.017 AU"
        }
    },
    "is_sentry_object": false
}